{
  "norad_id": 55481,
  "name": "STARLINK-5694",
  "history": [
    {
      "epoch": "2026-04-14T18:28:05.378880Z",
      "apogee_km": 486.39495174654803,
      "perigee_km": 484.7188376974573,
      "latitude_deg": 3.467177382669628e-05,
      "longitude_deg": 15.973152062768113,
      "height_km": 485.30058518509094,
      "semi_major_axis_km": 6863.693894722002,
      "eccentricity": 0.0001221,
      "inclination_deg": 43.0015,
      "raan_deg": 135.9367,
      "arg_perigee_deg": 272.2643,
      "mean_anomaly_deg": 87.8069,
      "mean_motion_rev_day": 15.26742875
    },
    {
      "epoch": "2026-04-15T08:35:57.569280Z",
      "apogee_km": 486.4496406256876,
      "perigee_km": 484.6547858964195,
      "latitude_deg": -2.323190146185374e-06,
      "longitude_deg": 160.1046073930966,
      "height_km": 485.25171647874237,
      "semi_major_axis_km": 6863.689213261053,
      "eccentricity": 0.00013075,
      "inclination_deg": 43.0021,
      "raan_deg": 132.616,
      "arg_perigee_deg": 274.9506,
      "mean_anomaly_deg": 85.1196,
      "mean_motion_rev_day": 15.26744437
    },
    {
      "epoch": "2026-04-16T17:34:19.913088Z",
      "apogee_km": 486.0334448495769,
      "perigee_km": 485.0766461784315,
      "latitude_deg": -1.2654537766793313e-06,
      "longitude_deg": 16.407764202020346,
      "height_km": 485.05543558399773,
      "semi_major_axis_km": 6863.692045514003,
      "eccentricity": 6.97e-05,
      "inclination_deg": 43.0022,
      "raan_deg": 124.8664,
      "arg_perigee_deg": 305.2262,
      "mean_anomaly_deg": 54.8524,
      "mean_motion_rev_day": 15.26743492
    },
    {
      "epoch": "2026-04-17T10:50:37.252320Z",
      "apogee_km": 486.4269470499339,
      "perigee_km": 484.70237337078834,
      "latitude_deg": 3.298811308017788e-05,
      "longitude_deg": 112.56814035032276,
      "height_km": 485.30027092783564,
      "semi_major_axis_km": 6863.70166021036,
      "eccentricity": 0.00012563,
      "inclination_deg": 43.0025,
      "raan_deg": 120.8083,
      "arg_perigee_deg": 272.7475,
      "mean_anomaly_deg": 87.3233,
      "mean_motion_rev_day": 15.26740284
    },
    {
      "epoch": "2026-04-18T07:15:19.323072Z",
      "apogee_km": 486.3615770302722,
      "perigee_km": 484.74984470790514,
      "latitude_deg": 3.337241806224377e-05,
      "longitude_deg": 160.75746842145102,
      "height_km": 485.4152821111177,
      "semi_major_axis_km": 6863.692710869088,
      "eccentricity": 0.00011741,
      "inclination_deg": 43.0028,
      "raan_deg": 116.0112,
      "arg_perigee_deg": 264.1108,
      "mean_anomaly_deg": 95.961,
      "mean_motion_rev_day": 15.2674327
    },
    {
      "epoch": "2026-04-19T06:48:26.165088Z",
      "apogee_km": 486.3874791309463,
      "perigee_km": 484.7127394762774,
      "latitude_deg": -4.1447863437669105e-05,
      "longitude_deg": 160.97653768869614,
      "height_km": 485.29878587544835,
      "semi_major_axis_km": 6863.687109303612,
      "eccentricity": 0.000122,
      "inclination_deg": 43.0029,
      "raan_deg": 110.4761,
      "arg_perigee_deg": 271.9359,
      "mean_anomaly_deg": 88.1352,
      "mean_motion_rev_day": 15.26745139
    }
  ]
}